{
  "type": "FeatureCollection",
  "features": [
    {
      "type": "Feature",
      "properties": {
        "norad_id": 31646,
        "name": "FENGYUN 1C DEB",
        "group": "fengyun-1c-debris",
        "lat": 74.38675219416338,
        "lon": -14.25701029823716,
        "alt_km": 846.2986353469596,
        "timestamp": "2025-12-22T04:03:39.452905+00:00",
        "meta_object_name": "FENGYUN 1C DEB",
        "meta_object_id": "1999-025CBC",
        "meta_epoch": "2025-12-21T19:12:21.277728",
        "meta_mean_motion": 14.1415009,
        "meta_eccentricity": 0.0033495,
        "meta_inclination": 98.6891,
        "meta_ra_of_asc_node": 18.5609,
        "meta_arg_of_pericenter": 188.088,
        "meta_mean_anomaly": 171.9757,
        "meta_ephemeris_type": 0,
        "meta_classification_type": "U",
        "meta_norad_cat_id": 31646,
        "meta_element_set_no": 999,
        "meta_rev_at_epoch": 63319,
        "meta_bstar": 0.00038755,
        "meta_mean_motion_dot": 6.99e-06,
        "meta_mean_motion_ddot": 0,
        "tle_line1": "1 31646U 99025CBC 25355.80024627  .00000699  00000+0  38755-3 0  9998",
        "tle_line2": "2 31646  98.6891  18.5609 0033495 188.0880 171.9757 14.14150090633193"
      },
      "geometry": {
        "type": "Point",
        "coordinates": [
          -14.25701029823716,
          74.38675219416338
        ]
      }
    },
    {
      "type": "Feature",
      "properties": {
        "norad_id": 31655,
        "name": "FENGYUN 1C DEB",
        "group": "fengyun-1c-debris",
        "lat": -15.258357366340178,
        "lon": -55.795186970026364,
        "alt_km": 1156.2373247564874,
        "timestamp": "2025-12-22T04:03:39.452915+00:00",
        "meta_object_name": "FENGYUN 1C DEB",
        "meta_object_id": "1999-025CBM",
        "meta_epoch": "2025-12-21T19:28:59.990880",
        "meta_mean_motion": 13.63924147,
        "meta_eccentricity": 0.0290352,
        "meta_inclination": 99.2852,
        "meta_ra_of_asc_node": 301.3054,
        "meta_arg_of_pericenter": 114.1713,
        "meta_mean_anomaly": 279.1459,
        "meta_ephemeris_type": 0,
        "meta_classification_type": "U",
        "meta_norad_cat_id": 31655,
        "meta_element_set_no": 999,
        "meta_rev_at_epoch": 59843,
        "meta_bstar": 0.0030683,
        "meta_mean_motion_dot": 3.207e-05,
        "meta_mean_motion_ddot": 0,
        "tle_line1": "1 31655U 99025CBM 25355.81180545  .00003207  00000+0  30683-2 0  9990",
        "tle_line2": "2 31655  99.2852 301.3054 0290352 114.1713 279.1459 13.63924147598438"
      },
      "geometry": {
        "type": "Point",
        "coordinates": [
          -55.795186970026364,
          -15.258357366340178
        ]
      }
    },
    {
      "type": "Feature",
      "properties": {
        "norad_id": 31656,
        "name": "FENGYUN 1C DEB",
        "group": "fengyun-1c-debris",
        "lat": 52.318434740636675,
        "lon": -26.346476776370473,
        "alt_km": 715.7835330649887,
        "timestamp": "2025-12-22T04:03:39.452925+00:00",
        "meta_object_name": "FENGYUN 1C DEB",
        "meta_object_id": "1999-025CBN",
        "meta_epoch": "2025-12-20T05:26:14.212032",
        "meta_mean_motion": 14.47119501,
        "meta_eccentricity": 0.0022708,
        "meta_inclination": 99.1923,
        "meta_ra_of_asc_node": 343.648,
        "meta_arg_of_pericenter": 31.3504,
        "meta_mean_anomaly": 347.0761,
        "meta_ephemeris_type": 0,
        "meta_classification_type": "U",
        "meta_norad_cat_id": 31656,
        "meta_element_set_no": 999,
        "meta_rev_at_epoch": 96564,
        "meta_bstar": 0.0014361,
        "meta_mean_motion_dot": 5.205e-05,
        "meta_mean_motion_ddot": 0,
        "tle_line1": "1 31656U 99025CBN 25354.22655338  .00005205  00000+0  14361-2 0  9997",
        "tle_line2": "2 31656  99.1923 343.6480 0022708  31.3504 347.0761 14.47119501965640"
      },
      "geometry": {
        "type": "Point",
        "coordinates": [
          -26.346476776370473,
          52.318434740636675
        ]
      }
    },
    {
      "type": "Feature",
      "properties": {
        "norad_id": 31657,
        "name": "FENGYUN 1C DEB",
        "group": "fengyun-1c-debris",
        "lat": 10.809021639007678,
        "lon": -98.74212850722375,
        "alt_km": 803.5947799113364,
        "timestamp": "2025-12-22T04:03:39.452936+00:00",
        "meta_object_name": "FENGYUN 1C DEB",
        "meta_object_id": "1999-025CBP",
        "meta_epoch": "2025-12-15T00:08:35.623968",
        "meta_mean_motion": 13.97064465,
        "meta_eccentricity": 0.01478678,
        "meta_inclination": 102.2166,
        "meta_ra_of_asc_node": 254.1396,
        "meta_arg_of_pericenter": 48.4638,
        "meta_mean_anomaly": 312.9088,
        "meta_ephemeris_type": 0,
        "meta_classification_type": "U",
        "meta_norad_cat_id": 31657,
        "meta_element_set_no": 999,
        "meta_rev_at_epoch": 62896,
        "meta_bstar": 0.0027457393,
        "meta_mean_motion_dot": 4.139e-05,
        "meta_mean_motion_ddot": 0,
        "tle_line1": "1 31657U 99025CBP 25349.00596787  .00004139  00000+0  27457-2 0  9995",
        "tle_line2": "2 31657 102.2166 254.1396 0147867  48.4638 312.9088 13.97064465628965"
      },
      "geometry": {
        "type": "Point",
        "coordinates": [
          -98.74212850722375,
          10.809021639007678
        ]
      }
    },
    {
      "type": "Feature",
      "properties": {
        "norad_id": 31658,
        "name": "FENGYUN 1C DEB",
        "group": "fengyun-1c-debris",
        "lat": 5.737097341698932,
        "lon": -156.58425579178993,
        "alt_km": 842.6526852641,
        "timestamp": "2025-12-22T04:03:39.452946+00:00",
        "meta_object_name": "FENGYUN 1C DEB",
        "meta_object_id": "1999-025CBQ",
        "meta_epoch": "2025-12-18T19:21:10.242720",
        "meta_mean_motion": 13.98854887,
        "meta_eccentricity": 0.02153005,
        "meta_inclination": 98.1522,
        "meta_ra_of_asc_node": 201.2458,
        "meta_arg_of_pericenter": 305.6616,
        "meta_mean_anomaly": 52.4673,
        "meta_ephemeris_type": 0,
        "meta_classification_type": "U",
        "meta_norad_cat_id": 31658,
        "meta_element_set_no": 999,
        "meta_rev_at_epoch": 69901,
        "meta_bstar": 0.0021112167,
        "meta_mean_motion_dot": 3.674e-05,
        "meta_mean_motion_ddot": 0,
        "tle_line1": "1 31658U 99025CBQ 25352.80636855  .00003674  00000+0  21112-2 0  9994",
        "tle_line2": "2 31658  98.1522 201.2458 0215300 305.6616  52.4673 13.98854887699015"
      },
      "geometry": {
        "type": "Point",
        "coordinates": [
          -156.58425579178993,
          5.737097341698932
        ]
      }
    },
    {
      "type": "Feature",
      "properties": {
        "norad_id": 31660,
        "name": "FENGYUN 1C DEB",
        "group": "fengyun-1c-debris",
        "lat": 62.27301167689008,
        "lon": -166.18971364214144,
        "alt_km": 736.1191430668159,
        "timestamp": "2025-12-22T04:03:39.452956+00:00",
        "meta_object_name": "FENGYUN 1C DEB",
        "meta_object_id": "1999-025CBS",
        "meta_epoch": "2025-12-16T17:57:05.517792",
        "meta_mean_motion": 14.27134643,
        "meta_eccentricity": 0.01019278,
        "meta_inclination": 98.5088,
        "meta_ra_of_asc_node": 351.9874,
        "meta_arg_of_pericenter": 168.851,
        "meta_mean_anomaly": 191.4963,
        "meta_ephemeris_type": 0,
        "meta_classification_type": "U",
        "meta_norad_cat_id": 31660,
        "meta_element_set_no": 999,
        "meta_rev_at_epoch": 7973,
        "meta_bstar": 0.0004636242,
        "meta_mean_motion_dot": 1.153e-05,
        "meta_mean_motion_ddot": 0,
        "tle_line1": "1 31660U 99025CBS 25350.74798053  .00001153  00000+0  46362-3 0  9992",
        "tle_line2": "2 31660  98.5088 351.9874 0101927 168.8510 191.4963 14.27134643 79736"
      },
      "geometry": {
        "type": "Point",
        "coordinates": [
          -166.18971364214144,
          62.27301167689008
        ]
      }
    },
    {
      "type": "Feature",
      "properties": {
        "norad_id": 31661,
        "name": "FENGYUN 1C DEB",
        "group": "fengyun-1c-debris",
        "lat": 56.16624499164645,
        "lon": -91.19990550759624,
        "alt_km": 789.8622792524648,
        "timestamp": "2025-12-22T04:03:39.452966+00:00",
        "meta_object_name": "FENGYUN 1C DEB",
        "meta_object_id": "1999-025CBT",
        "meta_epoch": "2025-12-20T04:27:13.309344",
        "meta_mean_motion": 14.25489004,
        "meta_eccentricity": 0.00589426,
        "meta_inclination": 98.8591,
        "meta_ra_of_asc_node": 73.3419,
        "meta_arg_of_pericenter": 202.9747,
        "meta_mean_anomaly": 186.5604,
        "meta_ephemeris_type": 0,
        "meta_classification_type": "U",
        "meta_norad_cat_id": 31661,
        "meta_element_set_no": 999,
        "meta_rev_at_epoch": 95819,
        "meta_bstar": 0.0011294573,
        "meta_mean_motion_dot": 2.673e-05,
        "meta_mean_motion_ddot": 0,
        "tle_line1": "1 31661U 99025CBT 25354.18557071  .00002673  00000+0  11295-2 0  9992",
        "tle_line2": "2 31661  98.8591  73.3419 0058942 202.9747 186.5604 14.25489004958194"
      },
      "geometry": {
        "type": "Point",
        "coordinates": [
          -91.19990550759624,
          56.16624499164645
        ]
      }
    }
  ]
}